[{"OBJECT_NAME":"HAWK-9C","OBJECT_ID":"2024-066G","EPOCH":"2026-03-08T13:33:16.734528","MEAN_MOTION":14.98771048,"ECCENTRICITY":0.00034369,"INCLINATION":45.5963,"RA_OF_ASC_NODE":76.3952,"ARG_OF_PERICENTER":229.7565,"MEAN_ANOMALY":130.3016,"EPHEMERIS_TYPE":0,"CLASSIFICATION_TYPE":"U","NORAD_CAT_ID":59448,"ELEMENT_SET_NO":999,"REV_AT_EPOCH":10473,"BSTAR":0.00026713286,"MEAN_MOTION_DOT":3.036e-5,"MEAN_MOTION_DDOT":0},{"OBJECT_NAME":"SPOT 2","OBJECT_ID":"1990-005A","EPOCH":"2026-03-09T21:55:30.289728","MEAN_MOTION":14.73729036,"ECCENTRICITY":0.01297919,"INCLINATION":98.6985,"RA_OF_ASC_NODE":218.7434,"ARG_OF_PERICENTER":40.4901,"MEAN_ANOMALY":320.5875,"EPHEMERIS_TYPE":0,"CLASSIFICATION_TYPE":"U","NORAD_CAT_ID":20436,"ELEMENT_SET_NO":999,"REV_AT_EPOCH":90070,"BSTAR":0.00013767957,"MEAN_MOTION_DOT":9.62e-6,"MEAN_MOTION_DDOT":0}]
